FENGYUN 1C DEB          
1 30579U 99025ALV 17345.90034921 -.00000006  00000-0  25095-4 0  9999
2 30579  99.1275   9.0376 0053744 314.8450 166.9047 14.02773024554986
